0 IRIDIUM 33 DEB
1 34706U 97051LD  13281.49809193  .00005602  00000-0  13575-2 0  7668
2 34706 086.3279 105.7393 0043206 073.1963 346.9768 14.52266941243225
0 IRIDIUM 33 DEB
1 34706U 97051LD  13282.53039752  .00008175  00000-0  19818-2 0  7675
2 34706 086.3281 105.2866 0043125 069.8773 343.9244 14.52290400243378
0 IRIDIUM 33 DEB
1 34706U 97051LD  13286.52829690  .00007130  00000-0  17265-2 0  7692
2 34706 086.3287 103.5338 0042670 057.1535 005.6076 14.52341926243958
0 IRIDIUM 33 DEB
1 34706U 97051LD  13288.45108164  .00012019  00000-0  29105-2 0  7702
2 34706 086.3274 102.6908 0042429 050.8615 338.7071 14.52376663244231
0 IRIDIUM 33 DEB
1 34706U 97051LD  13289.48439853  .00010516  00000-0  25455-2 0  7713
2 34706 086.3275 102.2375 0042234 047.5762 341.3197 14.52395287244384
0 IRIDIUM 33 DEB
1 34706U 97051LD  13291.22523209  .00009502  00000-0  22990-2 0  7722
2 34706 086.3275 101.4739 0042034 041.9745 083.3346 14.52422424244637
0 IRIDIUM 33 DEB
1 34706U 97051LD  13293.48491926  .00010051  00000-0  24305-2 0  7736
2 34706 086.3285 100.4831 0041654 034.5389 018.6252 14.52459686244962
